{
  "type": "FeatureCollection",
  "features": [
    {
      "type": "Feature",
      "properties": {
        "norad_id": 36994,
        "name": "FENGYUN 1C DEB",
        "group": "fengyun-1c-debris",
        "lat": 4.489351494362492,
        "lon": 138.0162764719025,
        "alt_km": 931.5565751017284,
        "timestamp": "2025-12-21T16:47:55.027262+00:00",
        "meta_object_name": "FENGYUN 1C DEB",
        "meta_object_id": "1999-025ECA",
        "meta_epoch": "2025-12-21T03:51:34.299360",
        "meta_mean_motion": 13.90789681,
        "meta_eccentricity": 0.01144877,
        "meta_inclination": 98.6439,
        "meta_ra_of_asc_node": 316.8302,
        "meta_arg_of_pericenter": 269.8246,
        "meta_mean_anomaly": 88.9796,
        "meta_ephemeris_type": 0,
        "meta_classification_type": "U",
        "meta_norad_cat_id": 36994,
        "meta_element_set_no": 999,
        "meta_rev_at_epoch": 81024,
        "meta_bstar": 9.9585318e-05,
        "meta_mean_motion_dot": 9e-07,
        "meta_mean_motion_ddot": 0,
        "tle_line1": "1 36994U 99025ECA 25355.16081365  .00000090  00000+0  99585-4 0  9994",
        "tle_line2": "2 36994  98.6439 316.8302 0114487 269.8246  88.9796 13.90789681810241"
      },
      "geometry": {
        "type": "Point",
        "coordinates": [
          138.0162764719025,
          4.489351494362492
        ]
      }
    },
    {
      "type": "Feature",
      "properties": {
        "norad_id": 36995,
        "name": "FENGYUN 1C DEB",
        "group": "fengyun-1c-debris",
        "lat": 5.804604074896058,
        "lon": 54.54450595466585,
        "alt_km": 888.9752764493796,
        "timestamp": "2025-12-21T16:47:55.027272+00:00",
        "meta_object_name": "FENGYUN 1C DEB",
        "meta_object_id": "1999-025ECB",
        "meta_epoch": "2025-12-21T10:50:27.808800",
        "meta_mean_motion": 14.04870407,
        "meta_eccentricity": 0.0038385,
        "meta_inclination": 98.3428,
        "meta_ra_of_asc_node": 233.4615,
        "meta_arg_of_pericenter": 285.703,
        "meta_mean_anomaly": 73.9907,
        "meta_ephemeris_type": 0,
        "meta_classification_type": "U",
        "meta_norad_cat_id": 36995,
        "meta_element_set_no": 999,
        "meta_rev_at_epoch": 63679,
        "meta_bstar": 0.0002276,
        "meta_mean_motion_dot": 3.29e-06,
        "meta_mean_motion_ddot": 0,
        "tle_line1": "1 36995U 99025ECB 25355.45171075  .00000329  00000+0  22760-3 0  9990",
        "tle_line2": "2 36995  98.3428 233.4615 0038385 285.7030  73.9907 14.04870407636795"
      },
      "geometry": {
        "type": "Point",
        "coordinates": [
          54.54450595466585,
          5.804604074896058
        ]
      }
    },
    {
      "type": "Feature",
      "properties": {
        "norad_id": 36996,
        "name": "FENGYUN 1C DEB",
        "group": "fengyun-1c-debris",
        "lat": 40.782372125375225,
        "lon": -25.626679849274456,
        "alt_km": 1033.8532723729804,
        "timestamp": "2025-12-21T16:47:55.027282+00:00",
        "meta_object_name": "FENGYUN 1C DEB",
        "meta_object_id": "1999-025ECC",
        "meta_epoch": "2025-12-19T06:51:36.156096",
        "meta_mean_motion": 14.11557729,
        "meta_eccentricity": 0.0254059,
        "meta_inclination": 98.2257,
        "meta_ra_of_asc_node": 144.9888,
        "meta_arg_of_pericenter": 330.3469,
        "meta_mean_anomaly": 147.4127,
        "meta_ephemeris_type": 0,
        "meta_classification_type": "U",
        "meta_norad_cat_id": 36996,
        "meta_element_set_no": 999,
        "meta_rev_at_epoch": 59784,
        "meta_bstar": 0.00056112,
        "meta_mean_motion_dot": 1.337e-05,
        "meta_mean_motion_ddot": 0,
        "tle_line1": "1 36996U 99025ECC 25353.28583514  .00001337  00000+0  56112-3 0  9993",
        "tle_line2": "2 36996  98.2257 144.9888 0254059 330.3469 147.4127 14.11557729597844"
      },
      "geometry": {
        "type": "Point",
        "coordinates": [
          -25.626679849274456,
          40.782372125375225
        ]
      }
    },
    {
      "type": "Feature",
      "properties": {
        "norad_id": 37003,
        "name": "FENGYUN 1C DEB",
        "group": "fengyun-1c-debris",
        "lat": 54.682209486629326,
        "lon": 6.276594158056546,
        "alt_km": 891.2468046706099,
        "timestamp": "2025-12-21T16:47:55.027292+00:00",
        "meta_object_name": "FENGYUN 1C DEB",
        "meta_object_id": "1999-025ECK",
        "meta_epoch": "2025-12-18T07:48:02.434752",
        "meta_mean_motion": 13.96231437,
        "meta_eccentricity": 0.00968579,
        "meta_inclination": 98.8458,
        "meta_ra_of_asc_node": 15.7304,
        "meta_arg_of_pericenter": 147.1253,
        "meta_mean_anomaly": 235.2095,
        "meta_ephemeris_type": 0,
        "meta_classification_type": "U",
        "meta_norad_cat_id": 37003,
        "meta_element_set_no": 999,
        "meta_rev_at_epoch": 60735,
        "meta_bstar": 0.00036300048,
        "meta_mean_motion_dot": 4.78e-06,
        "meta_mean_motion_ddot": 0,
        "tle_line1": "1 37003U 99025ECK 25352.32502818  .00000478  00000+0  36300-3 0  9997",
        "tle_line2": "2 37003  98.8458  15.7304 0096857 147.1253 235.2095 13.96231437607351"
      },
      "geometry": {
        "type": "Point",
        "coordinates": [
          6.276594158056546,
          54.682209486629326
        ]
      }
    },
    {
      "type": "Feature",
      "properties": {
        "norad_id": 37006,
        "name": "FENGYUN 1C DEB",
        "group": "fengyun-1c-debris",
        "lat": -77.20289332265169,
        "lon": -68.65739937438833,
        "alt_km": 635.4952172556832,
        "timestamp": "2025-12-21T16:47:55.027302+00:00",
        "meta_object_name": "FENGYUN 1C DEB",
        "meta_object_id": "1999-025ECN",
        "meta_epoch": "2025-12-21T12:12:10.675296",
        "meta_mean_motion": 14.48956775,
        "meta_eccentricity": 0.0255167,
        "meta_inclination": 99.2983,
        "meta_ra_of_asc_node": 244.9711,
        "meta_arg_of_pericenter": 221.9698,
        "meta_mean_anomaly": 136.169,
        "meta_ephemeris_type": 0,
        "meta_classification_type": "U",
        "meta_norad_cat_id": 37006,
        "meta_element_set_no": 999,
        "meta_rev_at_epoch": 65241,
        "meta_bstar": 0.00048411,
        "meta_mean_motion_dot": 2.709e-05,
        "meta_mean_motion_ddot": 0,
        "tle_line1": "1 37006U 99025ECN 25355.50845689  .00002709  00000+0  48411-3 0  9994",
        "tle_line2": "2 37006  99.2983 244.9711 0255167 221.9698 136.1690 14.48956775652419"
      },
      "geometry": {
        "type": "Point",
        "coordinates": [
          -68.65739937438833,
          -77.20289332265169
        ]
      }
    },
    {
      "type": "Feature",
      "properties": {
        "norad_id": 37008,
        "name": "FENGYUN 1C DEB",
        "group": "fengyun-1c-debris",
        "lat": 74.6263498872669,
        "lon": 78.83981993195398,
        "alt_km": 898.8698396748869,
        "timestamp": "2025-12-21T16:47:55.027312+00:00",
        "meta_object_name": "FENGYUN 1C DEB",
        "meta_object_id": "1999-025ECQ",
        "meta_epoch": "2025-12-20T14:50:39.175008",
        "meta_mean_motion": 14.07959093,
        "meta_eccentricity": 0.0062571,
        "meta_inclination": 99.1352,
        "meta_ra_of_asc_node": 113.5641,
        "meta_arg_of_pericenter": 231.8385,
        "meta_mean_anomaly": 127.7136,
        "meta_ephemeris_type": 0,
        "meta_classification_type": "U",
        "meta_norad_cat_id": 37008,
        "meta_element_set_no": 999,
        "meta_rev_at_epoch": 60425,
        "meta_bstar": 0.00098436,
        "meta_mean_motion_dot": 1.657e-05,
        "meta_mean_motion_ddot": 0,
        "tle_line1": "1 37008U 99025ECQ 25354.61850897  .00001657  00000+0  98436-3 0  9997",
        "tle_line2": "2 37008  99.1352 113.5641 0062571 231.8385 127.7136 14.07959093604252"
      },
      "geometry": {
        "type": "Point",
        "coordinates": [
          78.83981993195398,
          74.6263498872669
        ]
      }
    },
    {
      "type": "Feature",
      "properties": {
        "norad_id": 37017,
        "name": "FENGYUN 1C DEB",
        "group": "fengyun-1c-debris",
        "lat": 20.893127980357665,
        "lon": -62.91303642795359,
        "alt_km": 604.9633896396217,
        "timestamp": "2025-12-21T16:47:55.027323+00:00",
        "meta_object_name": "FENGYUN 1C DEB",
        "meta_object_id": "1999-025ECZ",
        "meta_epoch": "2025-12-20T02:22:22.724832",
        "meta_mean_motion": 14.40809486,
        "meta_eccentricity": 0.02814738,
        "meta_inclination": 98.7945,
        "meta_ra_of_asc_node": 298.8266,
        "meta_arg_of_pericenter": 343.5705,
        "meta_mean_anomaly": 15.6497,
        "meta_ephemeris_type": 0,
        "meta_classification_type": "U",
        "meta_norad_cat_id": 37017,
        "meta_element_set_no": 999,
        "meta_rev_at_epoch": 61267,
        "meta_bstar": 0.00129315,
        "meta_mean_motion_dot": 6.585e-05,
        "meta_mean_motion_ddot": 0,
        "tle_line1": "1 37017U 99025ECZ 25354.09887413  .00006585  00000+0  12932-2 0  9994",
        "tle_line2": "2 37017  98.7945 298.8266 0281473 343.5705  15.6497 14.40809486612673"
      },
      "geometry": {
        "type": "Point",
        "coordinates": [
          -62.91303642795359,
          20.893127980357665
        ]
      }
    }
  ]
}